0 COSMOS 2251 DEB
1 34303U 93036MZ  13281.81275266  .00001399  00000-0  47281-3 0  8958
2 34303 074.0195 186.8595 0199468 302.3302 111.3330 14.27263329241449
0 COSMOS 2251 DEB
1 34303U 93036MZ  13283.84782624  .00001854  00000-0  62341-3 0  8965
2 34303 074.0199 183.1714 0199432 298.1629 127.8692 14.27275147241737
0 COSMOS 2251 DEB
1 34303U 93036MZ  13286.18021731  .00001602  00000-0  54009-3 0  8974
2 34303 074.0202 178.9424 0199321 293.4228 232.1208 14.27280976242068
0 COSMOS 2251 DEB
1 34303U 93036MZ  13288.82516237  .00002140  00000-0  71811-3 0  8986
2 34303 074.0198 174.1469 0199202 288.0292 142.4237 14.27292249242441
0 COSMOS 2251 DEB
1 34303U 93036MZ  13291.00595831  .00001801  00000-0  60584-3 0  8996
2 34303 074.0190 170.1928 0199192 283.5852 187.9075 14.27300965242752
0 COSMOS 2251 DEB
1 34303U 93036MZ  13293.11722035  .00002068  00000-0  69411-3 0  9005
2 34303 074.0186 166.3646 0199034 279.2831 236.1734 14.27305504243052
0 COSMOS 2251 DEB
1 34303U 93036MZ  13295.76342130  .00001767  00000-0  59471-3 0  9013
2 34303 074.0181 161.5643 0198875 273.9072 153.1446 14.27316029243435
